{"type": "FeatureCollection", "features": [ {"type": "Feature", "properties": {"norad_id": 40115, "name": "WORLDVIEW-3 (WV-3)", "group": "resource", "lat": -78.11649196669813, "lon": -169.19649060285894, "alt_km": 617.5363873624956, "timestamp": "2025-12-05T11:32:55.683513+00:00", "meta": {"OBJECT_NAME": "WORLDVIEW-3 (WV-3)", "OBJECT_ID": "2014-048A", "EPOCH": "2025-12-04T16:35:39.272064", "MEAN_MOTION": 14.8548034, "ECCENTRICITY": 0.0004187, "INCLINATION": 97.8628, "RA_OF_ASC_NODE": 51.0731, "ARG_OF_PERICENTER": 213.3048, "MEAN_ANOMALY": 146.7904, "EPHEMERIS_TYPE": 0, "CLASSIFICATION_TYPE": "U", "NORAD_CAT_ID": 40115, "ELEMENT_SET_NO": 999, "REV_AT_EPOCH": 61304, "BSTAR": 0.00034394, "MEAN_MOTION_DOT": 2.915e-05, "MEAN_MOTION_DDOT": 0}, "tle": {"line1": "1 40115U 14048A   25338.69142676  .00002915  00000+0  34394-3 0  9992", "line2": "2 40115  97.8628  51.0731 0004187 213.3048 146.7904 14.85480340613043"}}, "geometry": {"type": "Point", "coordinates": [-169.19649060285894, -78.11649196669813]}}, {"type": "Feature", "properties": {"norad_id": 40118, "name": "GAOFEN-2", "group": "resource", "lat": -26.058578197534395, "lon": -145.32641480462664, "alt_km": 631.427416107631, "timestamp": "2025-12-05T11:32:55.683523+00:00", "meta": {"OBJECT_NAME": "GAOFEN-2", "OBJECT_ID": "2014-049A", "EPOCH": "2025-12-04T18:24:04.671072", "MEAN_MOTION": 14.80586684, "ECCENTRICITY": 0.000828, "INCLINATION": 98.0396, "RA_OF_ASC_NODE": 37.921, "ARG_OF_PERICENTER": 135.9202, "MEAN_ANOMALY": 224.2671, "EPHEMERIS_TYPE": 0, "CLASSIFICATION_TYPE": "U", "NORAD_CAT_ID": 40118, "ELEMENT_SET_NO": 999, "REV_AT_EPOCH": 61046, "BSTAR": 0.00020358, "MEAN_MOTION_DOT": 1.509e-05, "MEAN_MOTION_DDOT": 0}, "tle": {"line1": "1 40118U 14049A   25338.76672073  .00001509  00000+0  20358-3 0  9996", "line2": "2 40118  98.0396  37.9210 0008280 135.9202 224.2671 14.80586684610464"}}, "geometry": {"type": "Point", "coordinates": [-145.32641480462664, -26.058578197534395]}}, {"type": "Feature", "properties": {"norad_id": 40143, "name": "YAOGAN-21", "group": "resource", "lat": 51.451664144899524, "lon": -147.79071242070512, "alt_km": 487.4090090920163, "timestamp": "2025-12-05T11:32:55.683533+00:00", "meta": {"OBJECT_NAME": "YAOGAN-21", "OBJECT_ID": "2014-053A", "EPOCH": "2025-12-04T17:39:03.433824", "MEAN_MOTION": 15.2352677, "ECCENTRICITY": 0.0010195, "INCLINATION": 97.1769, "RA_OF_ASC_NODE": 22.397, "ARG_OF_PERICENTER": 66.1435, "MEAN_ANOMALY": 294.087, "EPHEMERIS_TYPE": 0, "CLASSIFICATION_TYPE": "U", "NORAD_CAT_ID": 40143, "ELEMENT_SET_NO": 999, "REV_AT_EPOCH": 62532, "BSTAR": 0.00060321, "MEAN_MOTION_DOT": 0.00014375, "MEAN_MOTION_DDOT": 0}, "tle": {"line1": "1 40143U 14053A   25338.73545641  .00014375  00000+0  60321-3 0  9995", "line2": "2 40143  97.1769  22.3970 0010195  66.1435 294.0870 15.23526770625323"}}, "geometry": {"type": "Point", "coordinates": [-147.79071242070512, 51.451664144899524]}}, {"type": "Feature", "properties": {"norad_id": 40275, "name": "YAOGAN-22", "group": "resource", "lat": -8.890504094790497, "lon": 124.49920700409331, "alt_km": 1205.2769311957054, "timestamp": "2025-12-05T11:32:55.683543+00:00", "meta": {"OBJECT_NAME": "YAOGAN-22", "OBJECT_ID": "2014-063A", "EPOCH": "2025-12-04T08:12:58.061088", "MEAN_MOTION": 13.15522481, "ECCENTRICITY": 0.0005885, "INCLINATION": 100.7418, "RA_OF_ASC_NODE": 121.6434, "ARG_OF_PERICENTER": 268.4921, "MEAN_ANOMALY": 91.5516, "EPHEMERIS_TYPE": 0, "CLASSIFICATION_TYPE": "U", "NORAD_CAT_ID": 40275, "ELEMENT_SET_NO": 999, "REV_AT_EPOCH": 53419, "BSTAR": 0.00013704, "MEAN_MOTION_DOT": 5e-08, "MEAN_MOTION_DDOT": 0}, "tle": {"line1": "1 40275U 14063A   25338.34233867  .00000005  00000+0  13704-3 0  9991", "line2": "2 40275 100.7418 121.6434 0005885 268.4921  91.5516 13.15522481534191"}}, "geometry": {"type": "Point", "coordinates": [124.49920700409331, -8.890504094790497]}}, {"type": "Feature", "properties": {"norad_id": 40298, "name": "ASNARO", "group": "resource", "lat": -72.42902518182323, "lon": 79.7220737586525, "alt_km": 518.180643525172, "timestamp": "2025-12-05T11:32:55.683554+00:00", "meta": {"OBJECT_NAME": "ASNARO", "OBJECT_ID": "2014-070A", "EPOCH": "2025-12-04T16:54:20.579040", "MEAN_MOTION": 15.19239183, "ECCENTRICITY": 0.0005187, "INCLINATION": 97.3668, "RA_OF_ASC_NODE": 54.8494, "ARG_OF_PERICENTER": 145.9599, "MEAN_ANOMALY": 214.1969, "EPHEMERIS_TYPE": 0, "CLASSIFICATION_TYPE": "U", "NORAD_CAT_ID": 40298, "ELEMENT_SET_NO": 999, "REV_AT_EPOCH": 61447, "BSTAR": 0.0012761, "MEAN_MOTION_DOT": 0.00026904, "MEAN_MOTION_DDOT": 0}, "tle": {"line1": "1 40298U 14070A   25338.70440485  .00026904  00000+0  12761-2 0  9997", "line2": "2 40298  97.3668  54.8494 0005187 145.9599 214.1969 15.19239183614477"}}, "geometry": {"type": "Point", "coordinates": [79.7220737586525, -72.42902518182323]}}, {"type": "Feature", "properties": {"norad_id": 40310, "name": "YAOGAN-24", "group": "resource", "lat": -53.69988942330355, "lon": 121.74581041055839, "alt_km": 656.756939245668, "timestamp": "2025-12-05T11:32:55.683564+00:00", "meta": {"OBJECT_NAME": "YAOGAN-24", "OBJECT_ID": "2014-072A", "EPOCH": "2025-12-04T17:54:02.869056", "MEAN_MOTION": 14.76150779, "ECCENTRICITY": 0.0014338, "INCLINATION": 98.1218, "RA_OF_ASC_NODE": 109.7969, "ARG_OF_PERICENTER": 162.7671, "MEAN_ANOMALY": 197.4028, "EPHEMERIS_TYPE": 0, "CLASSIFICATION_TYPE": "U", "NORAD_CAT_ID": 40310, "ELEMENT_SET_NO": 999, "REV_AT_EPOCH": 59503, "BSTAR": 0.00027742, "MEAN_MOTION_DOT": 1.867e-05, "MEAN_MOTION_DDOT": 0}, "tle": {"line1": "1 40310U 14072A   25338.74586654  .00001867  00000+0  27742-3 0  9994", "line2": "2 40310  98.1218 109.7969 0014338 162.7671 197.4028 14.76150779595039"}}, "geometry": {"type": "Point", "coordinates": [121.74581041055839, -53.69988942330355]}}, {"type": "Feature", "properties": {"norad_id": 40336, "name": "CBERS 4", "group": "resource", "lat": 26.186788675785436, "lon": 33.61325428217974, "alt_km": 772.4821568317484, "timestamp": "2025-12-05T11:32:55.683612+00:00", "meta": {"OBJECT_NAME": "CBERS 4", "OBJECT_ID": "2014-079A", "EPOCH": "2025-12-04T18:41:50.492832", "MEAN_MOTION": 14.35513034, "ECCENTRICITY": 0.0001461, "INCLINATION": 98.3321, "RA_OF_ASC_NODE": 37.068, "ARG_OF_PERICENTER": 122.7675, "MEAN_ANOMALY": 237.3653, "EPHEMERIS_TYPE": 0, "CLASSIFICATION_TYPE": "U", "NORAD_CAT_ID": 40336, "ELEMENT_SET_NO": 999, "REV_AT_EPOCH": 57606, "BSTAR": 0.00012804, "MEAN_MOTION_DOT": 3.26e-06, "MEAN_MOTION_DDOT": 0}, "tle": {"line1": "1 40336U 14079A   25338.77905663  .00000326  00000+0  12804-3 0  9999", "line2": "2 40336  98.3321  37.0680 0001461 122.7675 237.3653 14.35513034576062"}}, "geometry": {"type": "Point", "coordinates": [33.61325428217974, 26.186788675785436]}}, {"type": "Feature", "properties": {"norad_id": 40362, "name": "YAOGAN-26", "group": "resource", "lat": 21.250874814788382, "lon": 163.18026960341055, "alt_km": 450.93598174500494, "timestamp": "2025-12-05T11:32:55.683629+00:00", "meta": {"OBJECT_NAME": "YAOGAN-26", "OBJECT_ID": "2014-088A", "EPOCH": "2025-12-04T17:41:47.955840", "MEAN_MOTION": 15.38873591, "ECCENTRICITY": 0.0007226, "INCLINATION": 97.0636, "RA_OF_ASC_NODE": 339.6993, "ARG_OF_PERICENTER": 51.5757, "MEAN_ANOMALY": 308.6137, "EPHEMERIS_TYPE": 0, "CLASSIFICATION_TYPE": "U", "NORAD_CAT_ID": 40362, "ELEMENT_SET_NO": 999, "REV_AT_EPOCH": 60771, "BSTAR": 0.00089087, "MEAN_MOTION_DOT": 0.00034318, "MEAN_MOTION_DDOT": 0}, "tle": {"line1": "1 40362U 14088A   25338.73736060  .00034318  00000+0  89087-3 0  9992", "line2": "2 40362  97.0636 339.6993 0007226  51.5757 308.6137 15.38873591607716"}}, "geometry": {"type": "Point", "coordinates": [163.18026960341055, 21.250874814788382]}}, {"type": "Feature", "properties": {"norad_id": 40376, "name": "SMAP", "group": "resource", "lat": -43.075422538670765, "lon": 156.62972512813474, "alt_km": 689.7332342487871, "timestamp": "2025-12-05T11:32:55.683642+00:00", "meta": {"OBJECT_NAME": "SMAP", "OBJECT_ID": "2015-003A", "EPOCH": "2025-12-04T16:28:43.262112", "MEAN_MOTION": 14.63329196, "ECCENTRICITY": 0.0001211, "INCLINATION": 98.1291, "RA_OF_ASC_NODE": 343.5266, "ARG_OF_PERICENTER": 87.2192, "MEAN_ANOMALY": 272.9149, "EPHEMERIS_TYPE": 0, "CLASSIFICATION_TYPE": "U", "NORAD_CAT_ID": 40376, "ELEMENT_SET_NO": 999, "REV_AT_EPOCH": 57917, "BSTAR": 0.00021759, "MEAN_MOTION_DOT": 1.076e-05, "MEAN_MOTION_DDOT": 0}, "tle": {"line1": "1 40376U 15003A   25338.68661183  .00001076  00000+0  21759-3 0  9999", "line2": "2 40376  98.1291 343.5266 0001211  87.2192 272.9149 14.63329196579172"}}, "geometry": {"type": "Point", "coordinates": [156.62972512813474, -43.075422538670765]}}, {"type": "Feature", "properties": {"norad_id": 40536, "name": "KOMPSAT-3A", "group": "resource", "lat": -22.48742964172502, "lon": -43.3694915541777, "alt_km": 443.6836414938525, "timestamp": "2025-12-05T11:32:55.683653+00:00", "meta": {"OBJECT_NAME": "KOMPSAT-3A", "OBJECT_ID": "2015-014A", "EPOCH": "2025-12-04T18:31:56.430624", "MEAN_MOTION": 15.43513231, "ECCENTRICITY": 0.0003919, "INCLINATION": 97.6775, "RA_OF_ASC_NODE": 312.6816, "ARG_OF_PERICENTER": 143.69, "MEAN_ANOMALY": 216.4614, "EPHEMERIS_TYPE": 0, "CLASSIFICATION_TYPE": "U", "NORAD_CAT_ID": 40536, "ELEMENT_SET_NO": 999, "REV_AT_EPOCH": 59172, "BSTAR": 0.00075233, "MEAN_MOTION_DOT": 0.0003375, "MEAN_MOTION_DDOT": 0}, "tle": {"line1": "1 40536U 15014A   25338.77218091  .00033750  00000+0  75233-3 0  9995", "line2": "2 40536  97.6775 312.6816 0003919 143.6900 216.4614 15.43513231591729"}}, "geometry": {"type": "Point", "coordinates": [-43.3694915541777, -22.48742964172502]}}]}